NORAD_CAT_ID,OBJECT_NAME,OBJECT_TYPE,EPOCH,MEAN_MOTION,ECCENTRICITY,INCLINATION,RA_OF_ASC_NODE,ARG_OF_PERICENTER,MEAN_ANOMALY,BSTAR,MEAN_MOTION_DOT,MEAN_MOTION_DDOT,TLE_LINE0,TLE_LINE1,TLE_LINE2,SEMIMAJOR_AXIS,PERIOD,APOGEE,PERIGEE,DECAYED
52853.0,STARLINK-4189,PAYLOAD,2023-04-24 10:57:53,15.09410514,0.0001617,53.2167,58.7666,110.6314,249.4852,-0.0066009,-0.00105443,0.0,0 STARLINK-4189,1 52853U 22062Z   23114.45686609 -.00105443  00000-0 -66009-2 0  9992,2 52853  53.2167  58.7666 0001617 110.6314 249.4852 15.09410514 47867,6916.137,95.401,539.12,536.884,0.0
52853.0,STARLINK-4189,PAYLOAD,2023-04-25 14:00:01,15.08791452,0.0001186,53.2171,53.7118,88.8202,274.0534,0.0011277,0.00017681,0.0,0 STARLINK-4189,1 52853U 22062Z   23115.58335648  .00017681  00000-0  11277-2 0  9992,2 52853  53.2171  53.7118 0001186  88.8202 274.0534 15.08791452  1304,6918.029,95.441,540.714,539.073,0.0
52853.0,STARLINK-4189,PAYLOAD,2023-04-26 14:00:01,15.08841638,0.0001136,53.2169,49.223,89.3275,308.1651,0.0016737,0.0002645,0.0,0 STARLINK-4189,1 52853U 22062Z   23116.58334491  .00026450  00000-0  16737-2 0  9998,2 52853  53.2169  49.2230 0001136  89.3275 308.1651 15.08841638  1308,6917.875,95.437,540.526,538.955,0.0
52853.0,STARLINK-4189,PAYLOAD,2023-04-27 00:00:00,15.08895918,0.0001195,53.2168,47.3534,90.1637,51.8356,-0.0042502,-0.00067399,0.0,0 STARLINK-4189,1 52853U 22062Z   23117.00001157 -.00067399  00000-0 -42502-2 0  9994,2 52853  53.2168  47.3534 0001195  90.1637  51.8356 15.08895918  1304,6917.709,95.434,540.401,538.748,0.0
52853.0,STARLINK-4189,PAYLOAD,2023-04-27 02:33:11,15.08829789,8.89e-05,53.217,46.8794,102.3463,257.7628,0.00016998,2.418e-05,0.0,0 STARLINK-4189,1 52853U 22062Z   23117.10638093  .00002418  00000-0  16998-3 0  9990,2 52853  53.2170  46.8794 0000889 102.3463 257.7628 15.08829789 48269,6917.912,95.438,540.392,539.162,0.0
52853.0,STARLINK-4189,PAYLOAD,2023-04-27 05:43:57,15.08791895,0.0001547,53.2179,46.2793,87.0748,273.0421,0.0010297,0.00016116,0.0,0 STARLINK-4189,1 52853U 22062Z   23117.23886307  .00016116  00000-0  10297-2 0  9992,2 52853  53.2179  46.2793 0001547  87.0748 273.0421 15.08791895 47793,6918.027,95.441,540.963,538.822,0.0
52853.0,STARLINK-4189,PAYLOAD,2023-04-28 02:23:57,15.08846448,0.0001174,53.2175,42.4136,101.3903,258.7221,0.00032159,4.835e-05,0.0,0 STARLINK-4189,1 52853U 22062Z   23118.09996570  .00004835  00000-0  32159-3 0  9998,2 52853  53.2175  42.4136 0001174 101.3903 258.7221 15.08846448 48410,6917.861,95.437,540.538,538.914,0.0
52853.0,STARLINK-4189,PAYLOAD,2023-04-28 11:56:16,15.08846337,0.0001211,53.2182,40.6326,71.6612,288.4512,9.2043e-05,1.178e-05,0.0,0 STARLINK-4189,1 52853U 22062Z   23118.49741076  .00001178  00000-0  92043-4 0  9997,2 52853  53.2182  40.6326 0001211  71.6612 288.4512 15.08846337 48473,6917.861,95.437,540.564,538.888,0.0
52853.0,STARLINK-4189,PAYLOAD,2023-04-29 02:14:45,15.08843072,0.0001358,53.2178,37.9539,81.182,278.9326,-0.00011925,-2.185e-05,0.0,0 STARLINK-4189,1 52853U 22062Z   23119.09357915 -.00002185  00000-0 -11925-3 0  9999,2 52853  53.2178  37.9539 0001358  81.1820 278.9326 15.08843072 48562,6917.871,95.437,540.675,538.797,0.0
52853.0,STARLINK-4189,PAYLOAD,2023-04-29 18:08:35,15.08846528,0.0001258,53.2178,34.9804,92.3492,267.7645,-1.3219e-07,-2.9e-06,0.0,0 STARLINK-4189,1 52853U 22062Z   23119.75597041 -.00000290  00000-0 -13219-6 0  9994,2 52853  53.2178  34.9804 0001258  92.3492 267.7645 15.08846528 48662,6917.86,95.437,540.596,538.855,0.0
52853.0,STARLINK-4189,PAYLOAD,2023-04-30 00:30:07,15.0885807,0.0001266,53.2174,33.7925,88.8316,271.2822,2.9639e-06,-2.41e-06,0.0,0 STARLINK-4189,1 52853U 22062Z   23120.02092188 -.00000241  00000-0  29639-5 0  9995,2 52853  53.2174  33.7925 0001266  88.8316 271.2822 15.08858070 48700,6917.825,95.436,540.566,538.814,0.0
52853.0,STARLINK-4189,PAYLOAD,2023-04-30 21:10:09,15.08831733,0.0001478,53.2174,29.9284,93.3351,266.781,0.00014042,1.947e-05,0.0,0 STARLINK-4189,1 52853U 22062Z   23120.88205678  .00001947  00000-0  14042-3 0  9992,2 52853  53.2174  29.9284 0001478  93.3351 266.7810 15.08831733 48837,6917.906,95.438,540.793,538.748,0.0
52853.0,STARLINK-4189,PAYLOAD,2023-05-01 03:31:42,15.08837577,0.0001347,53.217,28.7362,86.1373,273.9773,0.00010729,1.42e-05,0.0,0 STARLINK-4189,1 52853U 22062Z   23121.14701646  .00001420  00000-0  10729-3 0  9992,2 52853  53.2170  28.7362 0001347  86.1373 273.9773 15.08837577 48386,6917.888,95.438,540.685,538.821,0.0
52853.0,STARLINK-4189,PAYLOAD,2023-05-01 21:00:56,15.08846954,0.0001299,53.2174,25.4649,85.736,274.3781,9.2999e-05,1.193e-05,0.0,0 STARLINK-4189,1 52853U 22062Z   23121.87565178  .00001193  00000-0  92999-4 0  9997,2 52853  53.2174  25.4649 0001299  85.7360 274.3781 15.08846954 48494,6917.859,95.437,540.623,538.826,0.0
52853.0,STARLINK-4189,PAYLOAD,2023-05-01 22:36:19,15.08848169,0.0001336,53.2173,25.1676,82.866,277.2484,0.00012244,1.662e-05,0.0,0 STARLINK-4189,1 52853U 22062Z   23121.94189127  .00001662  00000-0  12244-3 0  9996,2 52853  53.2173  25.1676 0001336  82.8660 277.2484 15.08848169 48990,6917.855,95.437,540.645,538.796,0.0
52853.0,STARLINK-4189,PAYLOAD,2023-05-02 00:11:42,15.08851816,0.0001395,53.2175,24.8701,81.0524,279.0626,0.00014669,2.048e-05,0.0,0 STARLINK-4189,1 52853U 22062Z   23122.00812941  .00002048  00000-0  14669-3 0  9993,2 52853  53.2175  24.8701 0001395  81.0524 279.0626 15.08851816 48511,6917.844,95.437,540.674,538.744,0.0
52853.0,STARLINK-4189,PAYLOAD,2023-05-02 20:51:43,15.08843548,0.0001442,53.2175,21.0048,75.6929,284.4223,0.00015604,2.197e-05,0.0,0 STARLINK-4189,1 52853U 22062Z   23122.86925260  .00002197  00000-0  15604-3 0  9991,2 52853  53.2175  21.0048 0001442  75.6929 284.4223 15.08843548 48645,6917.87,95.437,540.732,538.737,0.0
52853.0,STARLINK-4189,PAYLOAD,2023-05-03 00:02:29,15.08844792,0.0001327,53.2174,20.4097,87.0817,273.0327,0.00015634,2.201e-05,0.0,0 STARLINK-4189,1 52853U 22062Z   23123.00173092  .00002201  00000-0  15634-3 0  9995,2 52853  53.2174  20.4097 0001327  87.0817 273.0327 15.08844792 49154,6917.866,95.437,540.649,538.813,0.0
52853.0,STARLINK-4189,PAYLOAD,2023-05-03 09:34:48,15.08837302,0.0001299,53.2173,18.6263,86.1379,273.9762,-6.8362e-06,-3.97e-06,0.0,0 STARLINK-4189,1 52853U 22062Z   23123.39917414 -.00000397  00000-0 -68362-5 0  9995,2 52853  53.2173  18.6263 0001299  86.1379 273.9762 15.08837302 49216,6917.889,95.438,540.652,538.855,0.0
52853.0,STARLINK-4189,PAYLOAD,2023-05-03 22:17:54,15.08840494,0.0001275,53.2172,16.2497,97.0662,263.0475,-9.4124e-05,-1.786e-05,0.0,0 STARLINK-4189,1 52853U 22062Z   23123.92909883 -.00001786  00000-0 -94124-4 0  9992,2 52853  53.2172  16.2497 0001275  97.0662 263.0475 15.08840494 48809,6917.879,95.438,540.626,538.862,0.0
52853.0,STARLINK-4189,PAYLOAD,2023-05-04 12:36:22,15.08837512,0.0001233,53.2171,13.5712,96.2289,263.8843,1.8942e-05,1.4e-07,0.0,0 STARLINK-4189,1 52853U 22062Z   23124.52525793  .00000014  00000-0  18942-4 0  9998,2 52853  53.2171  13.5712 0001233  96.2289 263.8843 15.08837512 49386,6917.888,95.438,540.606,538.9,0.0
52853.0,STARLINK-4189,PAYLOAD,2023-05-04 20:33:17,15.08839008,0.0001226,53.2174,12.084,97.3419,262.7713,3.4066e-05,2.54e-06,0.0,0 STARLINK-4189,1 52853U 22062Z   23124.85645716  .00000254  00000-0  34066-4 0  9993,2 52853  53.2174  12.0840 0001226  97.3419 262.7713 15.08839008 48941,6917.883,95.438,540.597,538.9,0.0
52853.0,STARLINK-4189,PAYLOAD,2023-05-05 01:19:26,15.08845629,0.0001235,53.2174,11.192,96.4254,263.6879,9.1958e-05,1.176e-05,0.0,0 STARLINK-4189,1 52853U 22062Z   23125.05517154  .00001176  00000-0  91958-4 0  9997,2 52853  53.2174  11.1920 0001235  96.4254 263.6879 15.08845629 49464,6917.863,95.437,540.583,538.874,0.0
52853.0,STARLINK-4189,PAYLOAD,2023-05-05 20:24:05,15.08832781,0.0001204,53.2174,7.625,101.4138,258.699,0.000105,1.383e-05,0.0,0 STARLINK-4189,1 52853U 22062Z   23125.85006259  .00001383  00000-0  10500-3 0  9997,2 52853  53.2174   7.6250 0001204 101.4138 258.6990 15.08832781 49096,6917.902,95.438,540.6,538.935,0.0
52853.0,STARLINK-4189,PAYLOAD,2023-05-05 23:34:51,15.08837352,0.0001165,53.2173,7.0306,105.4139,254.6982,8.2354e-05,1.023e-05,0.0,0 STARLINK-4189,1 52853U 22062Z   23125.98254068  .00001023  00000-0  82354-4 0  9992,2 52853  53.2173   7.0306 0001165 105.4139 254.6982 15.08837352 49605,6917.888,95.438,540.559,538.948,0.0
52853.0,STARLINK-4189,PAYLOAD,2023-05-06 01:10:14,15.08839258,0.0001148,53.2174,6.7334,101.1798,258.9323,0.00011587,1.557e-05,0.0,0 STARLINK-4189,1 52853U 22062Z   23126.04877900  .00001557  00000-0  11587-3 0  9997,2 52853  53.2174   6.7334 0001148 101.1798 258.9323 15.08839258 49128,6917.883,95.438,540.542,538.953,0.0
52853.0,STARLINK-4189,PAYLOAD,2023-05-07 01:01:00,15.08846878,0.0001304,53.2182,2.2673,100.8065,259.3074,0.00024282,3.579e-05,0.0,0 STARLINK-4189,1 52853U 22062Z   23127.04237241  .00003579  00000-0  24282-3 0  9998,2 52853  53.2182   2.2673 0001304 100.8065 259.3074 15.08846878 49765,6917.859,95.437,540.626,538.822,0.0
52853.0,STARLINK-4189,PAYLOAD,2023-05-07 21:41:02,15.08836044,0.0001002,53.2166,358.4042,100.2512,259.8593,2.4048e-05,9.5e-07,0.0,0 STARLINK-4189,1 52853U 22062Z   23127.90350622  .00000095  00000-0  24048-4 0  9993,2 52853  53.2166 358.4042 0001002 100.2512 259.8593 15.08836044 49898,6917.892,95.438,540.451,539.064,0.0
52853.0,STARLINK-4189,PAYLOAD,2023-05-08 21:31:49,15.08851524,0.0001241,53.2165,353.945,91.9137,268.1997,0.00016027,2.265e-05,0.0,0 STARLINK-4189,1 52853U 22062Z   23128.89709898  .00002265  00000-0  16027-3 0  9993,2 52853  53.2165 353.9450 0001241  91.9137 268.1997 15.08851524 49558,6917.845,95.437,540.569,538.852,0.0
52853.0,STARLINK-4189,PAYLOAD,2023-05-09 21:22:36,15.0884526,0.0001265,53.2159,349.485,98.7188,261.3947,0.00017386,2.481e-05,0.0,0 STARLINK-4189,1 52853U 22062Z   23129.89070141  .00002481  00000-0  17386-3 0  9995,2 52853  53.2159 349.4850 0001265  98.7188 261.3947 15.08845260 49709,6917.864,95.437,540.604,538.854,0.0
